STARLINK-37376          
1 69378U 26123AB  26165.83339119 -.02153397  00000+0 -10024-1 0  9993
2 69378  53.1557 252.9854 0000563  54.8075 245.0676 15.85900042  2915
STARLINK-37383          
1 69379U 26123AC  26165.83339119 -.02198249  00000+0 -99127-2 0  9991
2 69379  53.1548 252.9183 0000775  59.7740 272.0976 15.86613146  2919
STARLINK-37411          
1 69380U 26123AD  26165.83339119 -.02162478  00000+0 -10090-1 0  9999
2 69380  53.1556 252.9703 0000755  58.4467 248.4648 15.85865359  2915
STARLINK-37427          
1 69381U 26123AE  26165.83339119 -.02131546  00000+0 -94542-2 0  9997
2 69381  53.1552 252.9308 0000709  62.3831 263.5976 15.86835838  2823
QIANFAN-165             
1 69382U 26124A   26164.79833279  .00000097  00000+0  37879-4 0  9993
2 69382  88.9991   2.4245 0002400 151.4164 208.7159 14.21216415  1335
QIANFAN-166             
1 69383U 26124B   26165.07811851  .00000093  00000+0  36440-4 0  9997
2 69383  89.0014   2.3807 0002134 113.5942 246.5473 14.20451886  1379
QIANFAN-167             
1 69384U 26124C   26164.93664244  .00000096  00000+0  37433-4 0  9990
2 69384  88.9952   2.4146 0006337 194.5230 165.5780 14.21105494  1355
QIANFAN-168             
1 69385U 26124D   26164.93551425  .00000097  00000+0  37407-4 0  9999
2 69385  89.0066   2.3643 0002313 140.1786 219.9575 14.21872881  1355
QIANFAN-169             
1 69386U 26124E   26165.07536333  .00000095  00000+0  36067-4 0  9996
2 69386  89.0015   2.3915 0001033 310.2027  49.9074 14.22762892  1376
QIANFAN-170             
1 69387U 26124F   26165.07434800  .00000096  00000+0  36120-4 0  9994
2 69387  88.9994   2.3837 0002252 116.5235 243.6188 14.23171609  1376
QIANFAN-171             
1 69388U 26124G   26164.79100397 -.01724011  00000+0 -86631+0 0  9994
2 69388  88.9981   2.4235 0022197 187.5923 172.4935 14.20530017  1332
QIANFAN-172             
1 69389U 26124H   26164.85713411 -.01443543  00000+0 -61077+0 0  9994
2 69389  88.9977   2.4156 0003179 174.9675 185.1552 14.29008880  1347
QIANFAN-173             
1 69390U 26124J   26164.93278677  .00000100  00000+0  36702-4 0  9992
2 69390  89.0007   2.4092 0002162 158.8999 201.2283 14.24972369  1354
QIANFAN-174             
1 69391U 26124K   26165.00260734  .00000102  00000+0  36818-4 0  9997
2 69391  88.9983   2.3990 0002366 170.0899 190.0341 14.25618199  1363
QIANFAN-175             
1 69392U 26124L   26165.07272091  .00000101  00000+0  36310-4 0  9990
2 69392  88.9984   2.3909 0002750 177.2611 182.8598 14.25625629  1373
QIANFAN-176             
1 69393U 26124M   26165.84462809  .00000095  00000+0  33765-4 0  9997
2 69393  88.9984   2.3023 0001960 174.8297 185.2917 14.25634398  1483
QIANFAN-177             
1 69394U 26124N   26165.84412059  .00000029  00000+0  60364-5 0  9993
2 69394  88.9981   2.3021 0002963 160.1702 199.9607 14.25688547  1485
QIANFAN-178             
1 69395U 26124P   26165.84427912  .00000071  00000+0  23788-4 0  9993
2 69395  88.9984   2.3023 0002356 165.5101 194.6160 14.25625932  1484
QIANFAN-179             
1 69396U 26124Q   26164.86006002 -.01971323  00000+0 -94572+0 0  9992
2 69396  88.9978   2.4153 0004352 107.3109 252.8559 14.22997940  1345
QIANFAN-180             
1 69397U 26124R   26165.00131773  .00000103  00000+0  36823-4 0  9990
2 69397  88.9984   2.3989 0002341 170.3819 189.7420 14.26489166  1360
QIANFAN-181             
1 69398U 26124S   26165.15061606  .00000093  00000+0  36215-4 0  9997
2 69398  88.9983   2.3842 0002118 140.0514 220.0833 14.21115081  1382
QIANFAN-182             
1 69399U 26124T   26164.79367052  .00000100  00000+0  37156-4 0  9995
2 69399  88.9961   2.4186 0003044 159.9795 200.1517 14.24123720  1335
DTC TEST OBJECT A       
1 69472U 26128A   26165.66253273  .00022629  00000+0  32887-3 0  9992
2 69472  54.9942 316.6914 0008255 279.4760  80.5343 15.55725035   830
DTC TEST OBJECT B       
1 69473U 26128B   26165.66159501  .00025798  00000+0  36804-3 0  9995
2 69473  55.0033 316.6889 0008307 280.4158  79.5942 15.56148300   823
TJS-25                  
1 69474U 26129A   26162.48255804  .00007407  00000+0  19774-2 0  9990
2 69474  16.5302  30.5351 7751889 199.9639  91.9387  1.72502163    78
2026-132A               
1 69502U 26132A   26165.75209609  .00000562  00000+0  51139-4 0  9999
2 69502  97.6915 229.4597 0012282 280.2907  79.6931 14.99042288   419
2026-132B               
1 69503U 26132B   26165.75193162  .00000298  00000+0  29411-4 0  9990
2 69503  97.6946 229.4610 0012204 282.4744  77.5113 14.99133300   412
BRO-22                  
1 69504U 26132C   26165.75081187  .00001351  00000+0  11401-3 0  9994
2 69504  97.6886 229.4584 0013732 294.0465  65.9320 14.99757052   419
2026-132D               
1 69505U 26132D   26164.41554847  .00001509  00000+0  12292-3 0  9999
2 69505  97.6871 228.1350 0011034 315.3023  44.7311 15.00977591   208
2026-132E               
1 69506U 26132E   26164.95816030  .00001978  00000+0  19337-3 0  9991
2 69506  97.6694 228.6931 0002823 327.8572  32.2476 14.93464297   293
